NORAD_CAT_ID,OBJECT_NAME,OBJECT_TYPE,EPOCH,MEAN_MOTION,ECCENTRICITY,INCLINATION,RA_OF_ASC_NODE,ARG_OF_PERICENTER,MEAN_ANOMALY,BSTAR,MEAN_MOTION_DOT,MEAN_MOTION_DDOT,TLE_LINE0,TLE_LINE1,TLE_LINE2,SEMIMAJOR_AXIS,PERIOD,APOGEE,PERIGEE,DECAYED
51724.0,STARLINK-3529,PAYLOAD,2023-07-03 14:50:22,15.08824988,0.0001226,53.2172,48.8299,90.9596,269.1537,0.00017377,2.478e-05,0.0,0 STARLINK-3529,1 51724U 22016L   23184.61831323  .00002478  00000-0  17377-3 0  9994,2 51724  53.2172  48.8299 0001226  90.9596 269.1537 15.08824988 76526,6917.926,95.439,540.639,538.943,0.0
51724.0,STARLINK-3529,PAYLOAD,2023-07-04 00:22:40,15.08842658,0.0001251,53.2177,47.0457,88.0412,272.0723,5.6462e-05,6.11e-06,0.0,0 STARLINK-3529,1 51724U 22016L   23185.01574629  .00000611  00000-0  56462-4 0  9998,2 51724  53.2177  47.0457 0001251  88.0412 272.0723 15.08842658 76581,6917.872,95.437,540.603,538.872,0.0
51724.0,STARLINK-3529,PAYLOAD,2023-07-04 22:38:05,15.088342,0.0001208,53.218,42.8812,97.0547,263.0582,-0.00010877,-2.018e-05,0.0,0 STARLINK-3529,1 51724U 22016L   23185.94311748 -.00002018  00000-0 -10877-3 0  9995,2 51724  53.2180  42.8812 0001208  97.0547 263.0582 15.08834200 76727,6917.898,95.438,540.599,538.927,0.0
51724.0,STARLINK-3529,PAYLOAD,2023-07-06 00:04:14,15.08843896,0.0001232,53.2179,38.1237,99.0668,261.0464,7.3361e-05,8.8e-06,0.0,0 STARLINK-3529,1 51724U 22016L   23187.00294677  .00000880  00000-0  73361-4 0  9996,2 51724  53.2179  38.1237 0001232  99.0668 261.0464 15.08843896 76882,6917.868,95.437,540.586,538.881,0.0
51724.0,STARLINK-3529,PAYLOAD,2023-07-06 14:22:43,15.08834526,0.000114,53.2171,35.4479,95.219,264.8933,9.9851e-05,1.301e-05,0.0,0 STARLINK-3529,1 51724U 22016L   23187.59911145  .00001301  00000-0  99851-4 0  9997,2 51724  53.2171  35.4479 0001140  95.2190 264.8933 15.08834526 76970,6917.897,95.438,540.551,538.973,0.0
51724.0,STARLINK-3529,PAYLOAD,2023-07-07 06:16:34,15.08842608,0.0001148,53.2177,32.4749,96.9692,263.143,0.00012524,1.706e-05,0.0,0 STARLINK-3529,1 51724U 22016L   23188.26150613  .00001706  00000-0  12524-3 0  9997,2 51724  53.2177  32.4749 0001148  96.9692 263.1430 15.08842608 77072,6917.872,95.437,540.532,538.943,0.0
51724.0,STARLINK-3529,PAYLOAD,2023-07-08 06:07:21,15.08841043,0.0001023,53.217,28.0152,89.6732,270.4377,-4.119e-05,-9.43e-06,0.0,0 STARLINK-3529,1 51724U 22016L   23189.25511294 -.00000943  00000-0 -41190-4 0  9999,2 51724  53.2170  28.0152 0001023  89.6732 270.4377 15.08841043 77220,6917.877,95.437,540.45,539.035,0.0
51724.0,STARLINK-3529,PAYLOAD,2023-07-09 18:41:14,15.0883359,7.75e-05,53.2184,21.1768,71.2473,288.8604,3.1773e-05,2.18e-06,0.0,0 STARLINK-3529,1 51724U 22016L   23190.77863829  .00000218  00000-0  31773-4 0  9991,2 51724  53.2184  21.1768 0000775  71.2473 288.8604 15.08833590 77453,6917.9,95.438,540.301,539.229,0.0
51724.0,STARLINK-3529,PAYLOAD,2023-07-10 18:32:01,15.08839553,0.0001004,53.2181,16.7154,86.0766,274.0341,8.4039e-05,1.05e-05,0.0,0 STARLINK-3529,1 51724U 22016L   23191.77223469  .00001050  00000-0  84039-4 0  9990,2 51724  53.2181  16.7154 0001004  86.0766 274.0341 15.08839553 77601,6917.882,95.438,540.441,539.052,0.0
51724.0,STARLINK-3529,PAYLOAD,2023-07-12 11:52:02,15.08840876,9.45e-05,53.2175,8.9833,84.2682,275.8418,3.0272e-05,1.94e-06,0.0,0 STARLINK-3529,1 51724U 22016L   23193.49447499  .00000194  00000-0  30272-4 0  9990,2 51724  53.2175   8.9833 0000945  84.2682 275.8418 15.08840876 77863,6917.878,95.437,540.396,539.089,0.0
51724.0,STARLINK-3529,PAYLOAD,2023-07-13 18:04:22,15.08835884,9.72e-05,53.219,3.3322,96.3015,263.8088,3.3821e-05,2.51e-06,0.0,0 STARLINK-3529,1 51724U 22016L   23194.75303731  .00000251  00000-0  33821-4 0  9997,2 51724  53.2190   3.3322 0000972  96.3015 263.8088 15.08835884 78051,6917.893,95.438,540.43,539.086,0.0
51724.0,STARLINK-3529,PAYLOAD,2023-07-14 17:55:08,15.08846898,0.0001014,53.2184,358.8738,89.0324,271.0785,6.9363e-05,8.17e-06,0.0,0 STARLINK-3529,1 51724U 22016L   23195.74663051  .00000817  00000-0  69363-4 0  9999,2 51724  53.2184 358.8738 0001014  89.0324 271.0785 15.08846898 78202,6917.859,95.437,540.426,539.023,0.0
51724.0,STARLINK-3529,PAYLOAD,2023-07-15 11:24:24,15.088387,0.0001774,53.2183,355.6014,81.16,278.9593,6.3426e-05,7.21e-06,0.0,0 STARLINK-3529,1 51724U 22016L   23196.47527873  .00000721  00000-0  63426-4 0  9999,2 51724  53.2183 355.6014 0001774  81.1600 278.9593 15.08838700 78314,6917.884,95.438,540.977,538.522,0.0
51724.0,STARLINK-3529,PAYLOAD,2023-07-16 03:18:16,15.08831453,0.0001228,53.2194,352.6325,102.7392,257.3737,7.3348e-06,-1.71e-06,0.0,0 STARLINK-3529,1 51724U 22016L   23197.13768698 -.00000171  00000-0  73348-5 0  9990,2 51724  53.2194 352.6325 0001228 102.7392 257.3737 15.08831453 78410,6917.907,95.438,540.621,538.922,0.0
51724.0,STARLINK-3529,PAYLOAD,2023-07-16 17:36:44,15.08839908,0.0001305,53.2195,349.9563,115.5331,244.5796,3.2595e-05,2.31e-06,0.0,0 STARLINK-3529,1 51724U 22016L   23197.73384319  .00000231  00000-0  32595-4 0  9994,2 51724  53.2195 349.9563 0001305 115.5331 244.5796 15.08839908 78501,6917.881,95.438,540.648,538.843,0.0
51724.0,STARLINK-3529,PAYLOAD,2023-07-17 09:30:35,15.08824113,0.0001218,53.2188,346.9793,89.5128,270.6003,0.00031271,4.69e-05,0.0,0 STARLINK-3529,1 51724U 22016L   23198.39624763  .00004690  00000-0  31271-3 0  9999,2 51724  53.2188 346.9793 0001218  89.5128 270.6003 15.08824113 78606,6917.929,95.439,540.637,538.951,0.0
51724.0,STARLINK-3529,PAYLOAD,2023-07-17 17:27:30,15.08845982,0.0001187,53.219,345.4924,83.6237,276.489,0.00016512,2.341e-05,0.0,0 STARLINK-3529,1 51724U 22016L   23198.72743902  .00002341  00000-0  16512-3 0  9995,2 51724  53.2190 345.4924 0001187  83.6237 276.4890 15.08845982 78650,6917.862,95.437,540.548,538.906,0.0
51724.0,STARLINK-3529,PAYLOAD,2023-07-18 09:21:22,15.08841696,0.0001207,53.2195,342.5192,87.4683,272.6447,0.00014275,1.985e-05,0.0,0 STARLINK-3529,1 51724U 22016L   23199.38984214  .00001985  00000-0  14275-3 0  9998,2 51724  53.2195 342.5192 0001207  87.4683 272.6447 15.08841696 78755,6917.875,95.437,540.575,538.905,0.0
51724.0,STARLINK-3529,PAYLOAD,2023-07-18 17:18:17,15.08852774,0.0001286,53.219,341.034,73.252,286.8614,0.00014702,2.053e-05,0.0,0 STARLINK-3529,1 51724U 22016L   23199.72103469  .00002053  00000-0  14702-3 0  9993,2 51724  53.2190 341.0340 0001286  73.2520 286.8614 15.08852774 78807,6917.841,95.437,540.596,538.817,0.0
51724.0,STARLINK-3529,PAYLOAD,2023-07-19 09:12:10,15.08834816,0.0001167,53.2194,338.0587,93.9528,266.1597,4.0366e-06,-2.24e-06,0.0,0 STARLINK-3529,1 51724U 22016L   23200.38344960 -.00000224  00000-0  40366-5 0  9997,2 51724  53.2194 338.0587 0001167  93.9528 266.1597 15.08834816 78904,6917.896,95.438,540.569,538.954,0.0
51724.0,STARLINK-3529,PAYLOAD,2023-07-20 13:49:05,15.08848325,0.0001214,53.2192,332.706,102.1936,257.9193,6.7422e-05,7.86e-06,0.0,0 STARLINK-3529,1 51724U 22016L   23201.57576173  .00000786  00000-0  67422-4 0  9995,2 51724  53.2192 332.7060 0001214 102.1936 257.9193 15.08848325 79088,6917.855,95.437,540.56,538.88,0.0
51724.0,STARLINK-3529,PAYLOAD,2023-07-21 08:53:44,15.08840346,0.0001309,53.2188,329.1379,104.3171,255.7967,0.00024141,3.556e-05,0.0,0 STARLINK-3529,1 51724U 22016L   23202.37064843  .00003556  00000-0  24141-3 0  9998,2 51724  53.2188 329.1379 0001309 104.3171 255.7967 15.08840346 79200,6917.879,95.438,540.65,538.839,0.0
51724.0,STARLINK-3529,PAYLOAD,2023-07-24 06:50:42,15.08836469,0.0001545,53.2189,316.0541,105.2632,254.8531,7.5592e-05,9.15e-06,0.0,0 STARLINK-3529,1 51724U 22016L   23205.28521231  .00000915  00000-0  75592-4 0  9993,2 51724  53.2189 316.0541 0001545 105.2632 254.8531 15.08836469 78589,6917.891,95.438,540.825,538.687,0.0
51724.0,STARLINK-3529,PAYLOAD,2023-07-25 11:27:38,15.08839904,0.0001052,53.2162,310.7007,81.376,278.7351,0.00011757,1.584e-05,0.0,0 STARLINK-3529,1 51724U 22016L   23206.47753273  .00001584  00000-0  11757-3 0  9993,2 51724  53.2162 310.7007 0001052  81.3760 278.7351 15.08839904 78769,6917.881,95.438,540.473,539.018,0.0
51724.0,STARLINK-3529,PAYLOAD,2023-07-26 06:32:16,15.08840946,0.0001304,53.2174,307.1354,82.1525,277.9615,9.9804e-05,1.301e-05,0.0,0 STARLINK-3529,1 51724U 22016L   23207.27241359  .00001301  00000-0  99804-4 0  9996,2 51724  53.2174 307.1354 0001304  82.1525 277.9615 15.08840946 78880,6917.877,95.437,540.645,538.84,0.0
51724.0,STARLINK-3529,PAYLOAD,2023-07-26 16:04:34,15.08849896,8.15e-05,53.2167,305.3505,33.1918,326.9125,0.00017952,2.571e-05,0.0,0 STARLINK-3529,1 51724U 22016L   23207.66984876  .00002571  00000-0  17952-3 0  9990,2 51724  53.2167 305.3505 0000815  33.1918 326.9125 15.08849896 80009,6917.85,95.437,540.279,539.151,0.0
51724.0,STARLINK-3529,PAYLOAD,2023-07-27 00:01:30,15.08839719,0.0001213,53.2164,303.8659,35.0483,325.0588,0.00037342,5.66e-05,0.0,0 STARLINK-3529,1 51724U 22016L   23208.00105224  .00005660  00000-0  37342-3 0  9998,2 51724  53.2164 303.8659 0001213  35.0483 325.0588 15.08839719 80051,6917.881,95.438,540.585,538.907,0.0
51724.0,STARLINK-3529,PAYLOAD,2023-07-27 06:23:03,15.08844128,0.000127,53.2164,302.6723,90.2242,269.8896,0.00012764,1.744e-05,0.0,0 STARLINK-3529,1 51724U 22016L   23208.26601044  .00001744  00000-0  12764-3 0  9997,2 51724  53.2164 302.6723 0001270  90.2242 269.8896 15.08844128 79032,6917.868,95.437,540.611,538.854,0.0
51724.0,STARLINK-3529,PAYLOAD,2023-07-28 06:13:50,15.08840336,0.0001123,53.2164,298.2096,118.8656,241.2449,-1.2935e-05,-4.94e-06,0.0,0 STARLINK-3529,1 51724U 22016L   23209.25961141 -.00000494  00000-0 -12935-4 0  9998,2 51724  53.2164 298.2096 0001123 118.8656 241.2449 15.08840336 80248,6917.879,95.438,540.521,538.967,0.0
51724.0,STARLINK-3529,PAYLOAD,2023-07-29 09:15:24,15.08835811,9.2e-05,53.2175,293.1577,88.8727,271.237,7.1302e-05,8.47e-06,0.0,0 STARLINK-3529,1 51724U 22016L   23210.38569630  .00000847  00000-0  71302-4 0  9994,2 51724  53.2175 293.1577 0000920  88.8727 271.2370 15.08835811 80414,6917.893,95.438,540.395,539.122,0.0
